[{"OBJECT_NAME":"FENGYUN 1C DEB","OBJECT_ID":"1999-025BNE","EPOCH":"2026-03-07T02:33:57.487968","MEAN_MOTION":14.23163973,"ECCENTRICITY":0.0105161,"INCLINATION":99.084,"RA_OF_ASC_NODE":305.6313,"ARG_OF_PERICENTER":231.6487,"MEAN_ANOMALY":127.5204,"EPHEMERIS_TYPE":0,"CLASSIFICATION_TYPE":"U","NORAD_CAT_ID":31272,"ELEMENT_SET_NO":999,"REV_AT_EPOCH":98189,"BSTAR":0.00051992893,"MEAN_MOTION_DOT":1.196e-5,"MEAN_MOTION_DDOT":0},{"OBJECT_NAME":"FENGYUN 1C DEB","OBJECT_ID":"1999-025BNG","EPOCH":"2026-03-07T11:04:03.838656","MEAN_MOTION":13.85846308,"ECCENTRICITY":0.02413317,"INCLINATION":99.0087,"RA_OF_ASC_NODE":247.6441,"ARG_OF_PERICENTER":240.7601,"MEAN_ANOMALY":116.9231,"EPHEMERIS_TYPE":0,"CLASSIFICATION_TYPE":"U","NORAD_CAT_ID":31274,"ELEMENT_SET_NO":999,"REV_AT_EPOCH":95380,"BSTAR":0.0011421576,"MEAN_MOTION_DOT":1.602e-5,"MEAN_MOTION_DDOT":0},{"OBJECT_NAME":"FENGYUN 1C DEB","OBJECT_ID":"1999-025BNH","EPOCH":"2026-03-06T13:20:54.573216","MEAN_MOTION":14.02615481,"ECCENTRICITY":0.01052656,"INCLINATION":98.9346,"RA_OF_ASC_NODE":112.3452,"ARG_OF_PERICENTER":120.089,"MEAN_ANOMALY":241.0764,"EPHEMERIS_TYPE":0,"CLASSIFICATION_TYPE":"U","NORAD_CAT_ID":31275,"ELEMENT_SET_NO":999,"REV_AT_EPOCH":96661,"BSTAR":0.0013894229,"MEAN_MOTION_DOT":2.207e-5,"MEAN_MOTION_DDOT":0},{"OBJECT_NAME":"FENGYUN 1C DEB","OBJECT_ID":"1999-025BNM","EPOCH":"2026-03-06T05:47:05.495712","MEAN_MOTION":14.26565013,"ECCENTRICITY":0.00726609,"INCLINATION":98.5202,"RA_OF_ASC_NODE":76.2651,"ARG_OF_PERICENTER":294.3094,"MEAN_ANOMALY":65.0511,"EPHEMERIS_TYPE":0,"CLASSIFICATION_TYPE":"U","NORAD_CAT_ID":31279,"ELEMENT_SET_NO":999,"REV_AT_EPOCH":98419,"BSTAR":0.00067858985,"MEAN_MOTION_DOT":1.64e-5,"MEAN_MOTION_DDOT":0},{"OBJECT_NAME":"FENGYUN 1C DEB","OBJECT_ID":"1999-025BNP","EPOCH":"2026-03-07T08:18:32.695200","MEAN_MOTION":15.24633493,"ECCENTRICITY":0.00987811,"INCLINATION":98.3916,"RA_OF_ASC_NODE":215.9505,"ARG_OF_PERICENTER":163.9495,"MEAN_ANOMALY":196.4908,"EPHEMERIS_TYPE":0,"CLASSIFICATION_TYPE":"U","NORAD_CAT_ID":31281,"ELEMENT_SET_NO":999,"REV_AT_EPOCH":985,"BSTAR":0.002863492,"MEAN_MOTION_DOT":0.00081898,"MEAN_MOTION_DDOT":0},{"OBJECT_NAME":"FENGYUN 1C DEB","OBJECT_ID":"1999-025BNQ","EPOCH":"2026-03-05T17:53:04.229376","MEAN_MOTION":14.43616823,"ECCENTRICITY":0.01284105,"INCLINATION":99.2201,"RA_OF_ASC_NODE":353.8487,"ARG_OF_PERICENTER":41.8421,"MEAN_ANOMALY":319.2497,"EPHEMERIS_TYPE":0,"CLASSIFICATION_TYPE":"U","NORAD_CAT_ID":31282,"ELEMENT_SET_NO":999,"REV_AT_EPOCH":98318,"BSTAR":0.00036052103,"MEAN_MOTION_DOT":1.295e-5,"MEAN_MOTION_DDOT":0},{"OBJECT_NAME":"FENGYUN 1C DEB","OBJECT_ID":"1999-025BNS","EPOCH":"2026-03-01T12:29:01.312512","MEAN_MOTION":13.98090695,"ECCENTRICITY":0.01436875,"INCLINATION":99.7171,"RA_OF_ASC_NODE":164.5335,"ARG_OF_PERICENTER":206.0479,"MEAN_ANOMALY":153.3402,"EPHEMERIS_TYPE":0,"CLASSIFICATION_TYPE":"U","NORAD_CAT_ID":31284,"ELEMENT_SET_NO":999,"REV_AT_EPOCH":96263,"BSTAR":0.0008221704,"MEAN_MOTION_DOT":1.227e-5,"MEAN_MOTION_DDOT":0},{"OBJECT_NAME":"FENGYUN 1C DEB","OBJECT_ID":"1999-025BNT","EPOCH":"2026-03-07T10:33:00.906048","MEAN_MOTION":14.26203188,"ECCENTRICITY":0.01984918,"INCLINATION":98.5311,"RA_OF_ASC_NODE":49.6324,"ARG_OF_PERICENTER":299.3776,"MEAN_ANOMALY":215.9121,"EPHEMERIS_TYPE":0,"CLASSIFICATION_TYPE":"U","NORAD_CAT_ID":31285,"ELEMENT_SET_NO":999,"REV_AT_EPOCH":98506,"BSTAR":0.00042427892,"MEAN_MOTION_DOT":1.202e-5,"MEAN_MOTION_DDOT":0},{"OBJECT_NAME":"FENGYUN 1C DEB","OBJECT_ID":"1999-025BNU","EPOCH":"2026-03-06T05:03:52.740576","MEAN_MOTION":14.23895297,"ECCENTRICITY":0.00805308,"INCLINATION":100.8587,"RA_OF_ASC_NODE":340.1596,"ARG_OF_PERICENTER":51.5939,"MEAN_ANOMALY":309.2428,"EPHEMERIS_TYPE":0,"CLASSIFICATION_TYPE":"U","NORAD_CAT_ID":31286,"ELEMENT_SET_NO":999,"REV_AT_EPOCH":65207,"BSTAR":0.0035929658,"MEAN_MOTION_DOT":8.463e-5,"MEAN_MOTION_DDOT":0},{"OBJECT_NAME":"FENGYUN 1C DEB","OBJECT_ID":"1999-025BNV","EPOCH":"2026-03-06T09:33:52.621344","MEAN_MOTION":14.28732708,"ECCENTRICITY":0.00294557,"INCLINATION":99.3983,"RA_OF_ASC_NODE":132.7669,"ARG_OF_PERICENTER":180.0015,"MEAN_ANOMALY":180.1169,"EPHEMERIS_TYPE":0,"CLASSIFICATION_TYPE":"U","NORAD_CAT_ID":31287,"ELEMENT_SET_NO":999,"REV_AT_EPOCH":97880,"BSTAR":0.0016966144,"MEAN_MOTION_DOT":4.241e-5,"MEAN_MOTION_DDOT":0},{"OBJECT_NAME":"FENGYUN 1C DEB","OBJECT_ID":"1999-025BNW","EPOCH":"2026-03-06T10:01:07.743936","MEAN_MOTION":15.11996262,"ECCENTRICITY":0.00143439,"INCLINATION":98.7438,"RA_OF_ASC_NODE":239.2093,"ARG_OF_PERICENTER":346.0612,"MEAN_ANOMALY":44.2284,"EPHEMERIS_TYPE":0,"CLASSIFICATION_TYPE":"U","NORAD_CAT_ID":31288,"ELEMENT_SET_NO":999,"REV_AT_EPOCH":98814,"BSTAR":0.0072973407,"MEAN_MOTION_DOT":0.00127645,"MEAN_MOTION_DDOT":0},{"OBJECT_NAME":"FENGYUN 1C DEB","OBJECT_ID":"1999-025BPB","EPOCH":"2026-02-25T18:48:44.936352","MEAN_MOTION":14.30849667,"ECCENTRICITY":0.0126925,"INCLINATION":98.4238,"RA_OF_ASC_NODE":67.2369,"ARG_OF_PERICENTER":23.6667,"MEAN_ANOMALY":337.0285,"EPHEMERIS_TYPE":0,"CLASSIFICATION_TYPE":"U","NORAD_CAT_ID":31293,"ELEMENT_SET_NO":999,"REV_AT_EPOCH":66317,"BSTAR":8.4211449e-5,"MEAN_MOTION_DOT":1.97e-6,"MEAN_MOTION_DDOT":0},{"OBJECT_NAME":"FENGYUN 1C DEB","OBJECT_ID":"1999-025BPC","EPOCH":"2026-03-07T05:06:33.347808","MEAN_MOTION":14.15483651,"ECCENTRICITY":0.0100889,"INCLINATION":98.5498,"RA_OF_ASC_NODE":63.335,"ARG_OF_PERICENTER":97.6848,"MEAN_ANOMALY":263.5798,"EPHEMERIS_TYPE":0,"CLASSIFICATION_TYPE":"U","NORAD_CAT_ID":31294,"ELEMENT_SET_NO":999,"REV_AT_EPOCH":98048,"BSTAR":0.00052022,"MEAN_MOTION_DOT":1.027e-5,"MEAN_MOTION_DDOT":0},{"OBJECT_NAME":"FENGYUN 1C DEB","OBJECT_ID":"1999-025BPD","EPOCH":"2026-03-07T06:29:26.159424","MEAN_MOTION":13.96865335,"ECCENTRICITY":0.0077876,"INCLINATION":98.3224,"RA_OF_ASC_NODE":248.2029,"ARG_OF_PERICENTER":15.2501,"MEAN_ANOMALY":345.0986,"EPHEMERIS_TYPE":0,"CLASSIFICATION_TYPE":"U","NORAD_CAT_ID":31295,"ELEMENT_SET_NO":999,"REV_AT_EPOCH":96683,"BSTAR":0.00013525,"MEAN_MOTION_DOT":1.55e-6,"MEAN_MOTION_DDOT":0},{"OBJECT_NAME":"FENGYUN 1C DEB","OBJECT_ID":"1999-025BPE","EPOCH":"2026-03-07T11:13:33.117888","MEAN_MOTION":14.78376609,"ECCENTRICITY":0.00207408,"INCLINATION":99.0645,"RA_OF_ASC_NODE":356.3868,"ARG_OF_PERICENTER":326.6852,"MEAN_ANOMALY":33.3049,"EPHEMERIS_TYPE":0,"CLASSIFICATION_TYPE":"U","NORAD_CAT_ID":31296,"ELEMENT_SET_NO":999,"REV_AT_EPOCH":98598,"BSTAR":0.0093865571,"MEAN_MOTION_DOT":0.00069194,"MEAN_MOTION_DDOT":0},{"OBJECT_NAME":"FENGYUN 1C DEB","OBJECT_ID":"1999-025BPF","EPOCH":"2026-03-07T08:39:51.936192","MEAN_MOTION":14.57410296,"ECCENTRICITY":0.01377147,"INCLINATION":98.9443,"RA_OF_ASC_NODE":214.4486,"ARG_OF_PERICENTER":225.4071,"MEAN_ANOMALY":164.6728,"EPHEMERIS_TYPE":0,"CLASSIFICATION_TYPE":"U","NORAD_CAT_ID":31297,"ELEMENT_SET_NO":999,"REV_AT_EPOCH":533,"BSTAR":0.00074750884,"MEAN_MOTION_DOT":3.801e-5,"MEAN_MOTION_DDOT":0}]
