FENGYUN 1C DEB          
1 31272U 99025BNE 26066.10691537  .00001196  00000+0  51993-3 0  9998
2 31272  99.0840 305.6313 0105161 231.6487 127.5204 14.23163973981898
FENGYUN 1C DEB          
1 31274U 99025BNG 26066.46115554  .00001602  00000+0  11422-2 0  9993
2 31274  99.0087 247.6441 0241331 240.7601 116.9231 13.85846308953808
FENGYUN 1C DEB          
1 31275U 99025BNH 26065.55618719  .00002207  00000+0  13894-2 0  9991
2 31275  98.9346 112.3452 0105265 120.0890 241.0764 14.02615481966610
FENGYUN 1C DEB          
1 31279U 99025BNM 26065.24103583  .00001640  00000+0  67859-3 0  9990
2 31279  98.5202  76.2651 0072660 294.3094  65.0511 14.26565013984191
FENGYUN 1C DEB          
1 31281U 99025BNP 26066.34621175  .00081898  00000+0  28635-2 0  9998
2 31281  98.3916 215.9505 0098781 163.9495 196.4908 15.24633493  9859
FENGYUN 1C DEB          
1 31282U 99025BNQ 26064.74518784  .00001295  00000+0  36052-3 0  9998
2 31282  99.2201 353.8487 0128410  41.8421 319.2497 14.43616823983187
FENGYUN 1C DEB          
1 31284U 99025BNS 26060.52015408  .00001227  00000+0  82217-3 0  9996
2 31284  99.7171 164.5335 0143687 206.0479 153.3402 13.98090695962632
FENGYUN 1C DEB          
1 31285U 99025BNT 26066.43959382  .00001202  00000+0  42428-3 0  9994
2 31285  98.5311  49.6324 0198491 299.3776 215.9121 14.26203188985065
FENGYUN 1C DEB          
1 31286U 99025BNU 26065.21102709  .00008463  00000+0  35930-2 0  9998
2 31286 100.8587 340.1596 0080530  51.5939 309.2428 14.23895297652075
FENGYUN 1C DEB          
1 31287U 99025BNV 26065.39852571  .00004241  00000+0  16966-2 0  9995
2 31287  99.3983 132.7669 0029455 180.0015 180.1169 14.28732708978808
FENGYUN 1C DEB          
1 31288U 99025BNW 26065.41745074  .00127645  00000+0  72973-2 0  9992
2 31288  98.7438 239.2093 0014343 346.0612  44.2284 15.11996262988144
FENGYUN 1C DEB          
1 31293U 99025BPB 26056.78385343  .00000197  00000+0  84211-4 0  9999
2 31293  98.4238  67.2369 0126925  23.6667 337.0285 14.30849667663171
FENGYUN 1C DEB          
1 31294U 99025BPC 26066.21288597  .00001027  00000+0  52022-3 0  9999
2 31294  98.5498  63.3350 0100889  97.6848 263.5798 14.15483651980489
FENGYUN 1C DEB          
1 31295U 99025BPD 26066.27044166  .00000155  00000+0  13525-3 0  9994
2 31295  98.3224 248.2029 0077876  15.2501 345.0986 13.96865335966832
FENGYUN 1C DEB          
1 31296U 99025BPE 26066.46774442  .00069194  00000+0  93866-2 0  9996
2 31296  99.0645 356.3868 0020740 326.6852  33.3049 14.78376609985982
FENGYUN 1C DEB          
1 31297U 99025BPF 26066.36101778  .00003801  00000+0  74751-3 0  9998
2 31297  98.9443 214.4486 0137714 225.4071 164.6728 14.57410296  5338
